ORBCOMM-X               
1 21576U 91050C   24366.73004672  .00001319  00000+0  40676-3 0  9995
2 21576  98.3671  70.5886 0003242 351.0626   9.0506 14.43008405757968
ORBCOMM FM01            
1 23545U 95017A   24366.60193389  .00018034  00000+0  20444-2 0  9992
2 23545  69.9655 130.9832 0006146 248.8099 111.2397 14.86384220587578
ORBCOMM FM02            
1 23546U 95017B   24366.67014122  .00024635  00000+0  27796-2 0  9998
2 23546  69.9664 150.5116 0007531 238.6489 121.3927 14.86478949587226
ORBCOMM FM08            
1 25112U 97084A   24366.98004186  .00006903  00000+0  20100-2 0  9998
2 25112  45.0140  89.9393 0005458 145.0060 215.1150 14.44715979417352
ORBCOMM FM10            
1 25113U 97084B   24366.73029635  .00005727  00000+0  16813-2 0  9997
2 25113  45.0152  93.2382 0002542 109.3366 250.7760 14.44534814592291
ORBCOMM FM11            
1 25114U 97084C   24366.63787028  .00006409  00000+0  18847-2 0  9991
2 25114  45.0136  94.0235 0003456 105.8272 254.2960 14.44318404417249
ORBCOMM FM12            
1 25115U 97084D   24366.74045243  .00005924  00000+0  17453-2 0  9993
2 25115  45.0145  93.2923 0002426 110.7769 249.3342 14.44321064417051
ORBCOMM FM09            
1 25116U 97084E   24366.75999243  .00005618  00000+0  16604-2 0  9990
2 25116  45.0147  93.9833 0003390  80.7281 279.3953 14.44235296417262
ORBCOMM FM06            
1 25118U 97084G   24366.79196208  .00006330  00000+0  18356-2 0  9994
2 25118  45.0141  91.1175 0001722 224.6461 287.1920 14.45016697417302
ORBCOMM FM07            
1 25119U 97084H   24366.70233001  .00006312  00000+0  18349-2 0  9991
2 25119  45.0136  92.2687 0000964 148.9474 211.1434 14.44897910417284
ORBCOMM FM03            
1 25158U 98007B   24366.65543831  .00005518  00000+0  20047-2 0  9994
2 25158 107.9667 151.5990 0046603 184.9829 175.0851 14.33721010400024
ORBCOMM FM04            
1 25159U 98007C   24366.87898156  .00005394  00000+0  19548-2 0  9998
2 25159 107.9654 155.1628 0042102 182.4961 177.5973 14.33991893400232
ORBCOMM FM18            
1 25414U 98046B   24366.86994261  .00004894  00000+0  16600-2 0  9998
2 25414  44.9915 248.6364 0004130 148.1843 211.9255 14.37657316380166
ORBCOMM FM19            
1 25415U 98046C   24366.88305602  .00004747  00000+0  16177-2 0  9992
2 25415  44.9928 250.3130 0003036 135.5793 323.3365 14.37472551380122
ORBCOMM FM20            
1 25416U 98046D   24366.90954797  .00003360  00000+0  11810-2 0  9990
2 25416  44.9930 253.0928 0000618  62.2833 297.8078 14.36538202380205
ORBCOMM FM16            
1 25417U 98046E   24366.88187595  .00004543  00000+0  15348-2 0  9996
2 25417  44.9922 246.8413 0003735 163.8216 196.2752 14.37968573380167
ORBCOMM FM15            
1 25418U 98046F   24366.88810734  .00004304  00000+0  14660-2 0  9996
2 25418  44.9955 251.4786 0003212 165.6806 194.4133 14.37651682380167
ORBCOMM FM13            
1 25420U 98046H   24366.85384577  .00003812  00000+0  13236-2 0  9998
2 25420  44.9963 256.7804 0004238 147.3051 212.8060 14.36894445379163
