OBJECT_NAME,OBJECT_ID,EPOCH,MEAN_MOTION,ECCENTRICITY,INCLINATION,RA_OF_ASC_NODE,ARG_OF_PERICENTER,MEAN_ANOMALY,EPHEMERIS_TYPE,CLASSIFICATION_TYPE,NORAD_CAT_ID,ELEMENT_SET_NO,REV_AT_EPOCH,BSTAR,MEAN_MOTION_DOT,MEAN_MOTION_DDOT,SEMIMAJOR_AXIS,SATELLITE_TYPE
ORBCOMM-X,1991-050C,2024-12-31T17:31:16.036608,14.43008405,0.0003242,98.3671,70.5886,351.0626,9.0506,0,U,21576,999,75796,0.00040676,1.319e-05,0.0,7126.712964715515,Orbcomm
ORBCOMM FM01,1995-017A,2024-12-31T14:26:47.088096,14.8638422,0.0006146,69.9655,130.9832,248.8099,111.2397,0,U,23545,999,58757,0.0020444,0.00018034,0.0,6987.381418456326,Orbcomm
ORBCOMM FM02,1995-017B,2024-12-31T16:05:00.201408,14.86478949,0.0007531,69.9664,150.5116,238.6489,121.3927,0,U,23546,999,58722,0.0027796,0.00024635,0.0,6987.08455824391,Orbcomm
ORBCOMM FM08,1997-084A,2024-12-31T23:31:15.616704,14.44715979,0.0005458,45.014,89.9393,145.006,215.115,0,U,25112,999,41735,0.00201,6.903e-05,0.0,7121.096272134562,Orbcomm
ORBCOMM FM10,1997-084B,2024-12-31T17:31:37.604640,14.44534814,0.0002542,45.0152,93.2382,109.3366,250.776,0,U,25113,999,59229,0.0016813,5.727e-05,0.0,7121.6916501663745,Orbcomm
ORBCOMM FM11,1997-084C,2024-12-31T15:18:31.992192,14.44318404,0.0003456,45.0136,94.0235,105.8272,254.296,0,U,25114,999,41724,0.0018847,6.409e-05,0.0,7122.403019995659,Orbcomm
ORBCOMM FM12,1997-084D,2024-12-31T17:46:15.089952,14.44321064,0.0002426,45.0145,93.2923,110.7769,249.3342,0,U,25115,999,41705,0.0017453,5.924e-05,0.0,7122.394275126612,Orbcomm
ORBCOMM FM09,1997-084E,2024-12-31T18:14:23.345952,14.44235296,0.000339,45.0147,93.9833,80.7281,279.3953,0,U,25116,999,41726,0.0016604,5.618e-05,0.0,7122.676254786378,Orbcomm
ORBCOMM FM06,1997-084G,2024-12-31T19:00:25.523712,14.45016697,0.0001722,45.0141,91.1175,224.6461,287.192,0,U,25118,999,41730,0.0018356,6.33e-05,0.0,7120.108271504582,Orbcomm
ORBCOMM FM07,1997-084H,2024-12-31T16:51:21.312864,14.4489791,9.64e-05,45.0136,92.2687,148.9474,211.1434,0,U,25119,999,41728,0.0018349,6.312e-05,0.0,7120.498501940971,Orbcomm
ORBCOMM FM03,1998-007B,2024-12-31T15:43:49.869984,14.3372101,0.0046603,107.9667,151.599,184.9829,175.0851,0,U,25158,999,40002,0.0020047,5.518e-05,0.0,7157.45690218197,Orbcomm
ORBCOMM FM04,1998-007C,2024-12-31T21:05:44.006784,14.33991893,0.0042102,107.9654,155.1628,182.4961,177.5973,0,U,25159,999,40023,0.0019548,5.394e-05,0.0,7156.555504968593,Orbcomm
ORBCOMM FM18,1998-046B,2024-12-31T20:52:43.041504,14.37657316,0.000413,44.9915,248.6364,148.1843,211.9255,0,U,25414,999,38016,0.00166,4.894e-05,0.0,7144.386187478539,Orbcomm
ORBCOMM FM19,1998-046C,2024-12-31T21:11:36.040128,14.37472551,0.0003036,44.9928,250.313,135.5793,323.3365,0,U,25415,999,38012,0.0016177,4.747e-05,0.0,7144.998375046369,Orbcomm
ORBCOMM FM20,1998-046D,2024-12-31T21:49:44.944608,14.36538202,6.18e-05,44.993,253.0928,62.2833,297.8078,0,U,25416,999,38020,0.001181,3.36e-05,0.0,7148.0961920054915,Orbcomm
ORBCOMM FM16,1998-046E,2024-12-31T21:09:54.082080,14.37968573,0.0003735,44.9922,246.8413,163.8216,196.2752,0,U,25417,999,38016,0.0015348,4.543e-05,0.0,7143.3551865305335,Orbcomm
ORBCOMM FM15,1998-046F,2024-12-31T21:18:52.474176,14.37651682,0.0003212,44.9955,251.4786,165.6806,194.4133,0,U,25418,999,38016,0.001466,4.304e-05,0.0,7144.404852846047,Orbcomm
ORBCOMM FM13,1998-046H,2024-12-31T20:29:32.274528,14.36894445,0.0004238,44.9963,256.7804,147.3051,212.806,0,U,25420,999,37916,0.0013236,3.812e-05,0.0,7146.914678882156,Orbcomm
